{
  "type": "FeatureCollection",
  "features": [
    {
      "type": "Feature",
      "properties": {
        "norad_id": 66561,
        "name": "STARLINK-35305",
        "group": "last-30-days",
        "lat": -35.781442163079554,
        "lon": -76.5972783513131,
        "alt_km": 413.1308120468284,
        "timestamp": "2025-12-24T09:46:29.713153+00:00",
        "meta_object_name": "STARLINK-35305",
        "meta_object_id": "2025-268E",
        "meta_epoch": "2025-12-24T04:00:01.998720",
        "meta_mean_motion": 15.5308638,
        "meta_eccentricity": 0.0001396,
        "meta_inclination": 43.0008,
        "meta_ra_of_asc_node": 54.1524,
        "meta_arg_of_pericenter": 264.4824,
        "meta_mean_anomaly": 68.1791,
        "meta_ephemeris_type": 0,
        "meta_classification_type": "U",
        "meta_norad_cat_id": 66561,
        "meta_element_set_no": 999,
        "meta_rev_at_epoch": 606,
        "meta_bstar": -0.036177,
        "meta_mean_motion_dot": -0.02068114,
        "meta_mean_motion_ddot": 0,
        "tle_line1": "1 66561U 25268E   25358.16668980 -.02068114  00000+0 -36177-1 0  9992",
        "tle_line2": "2 66561  43.0008  54.1524 0001396 264.4824  68.1791 15.53086380  6064"
      },
      "geometry": {
        "type": "Point",
        "coordinates": [
          -76.5972783513131,
          -35.781442163079554
        ]
      }
    },
    {
      "type": "Feature",
      "properties": {
        "norad_id": 66562,
        "name": "STARLINK-35579",
        "group": "last-30-days",
        "lat": -33.42185159741158,
        "lon": -82.1585153584798,
        "alt_km": 415.50471466515955,
        "timestamp": "2025-12-24T09:46:29.713164+00:00",
        "meta_object_name": "STARLINK-35579",
        "meta_object_id": "2025-268F",
        "meta_epoch": "2025-12-24T04:00:01.998720",
        "meta_mean_motion": 15.52233241,
        "meta_eccentricity": 0.0001352,
        "meta_inclination": 42.9998,
        "meta_ra_of_asc_node": 54.1632,
        "meta_arg_of_pericenter": 263.6832,
        "meta_mean_anomaly": 64.5476,
        "meta_ephemeris_type": 0,
        "meta_classification_type": "U",
        "meta_norad_cat_id": 66562,
        "meta_element_set_no": 999,
        "meta_rev_at_epoch": 612,
        "meta_bstar": -0.036679,
        "meta_mean_motion_dot": -0.02036311,
        "meta_mean_motion_ddot": 0,
        "tle_line1": "1 66562U 25268F   25358.16668980 -.02036311  00000+0 -36679-1 0  9994",
        "tle_line2": "2 66562  42.9998  54.1632 0001352 263.6832  64.5476 15.52233241  6129"
      },
      "geometry": {
        "type": "Point",
        "coordinates": [
          -82.1585153584798,
          -33.42185159741158
        ]
      }
    },
    {
      "type": "Feature",
      "properties": {
        "norad_id": 66563,
        "name": "STARLINK-35437",
        "group": "last-30-days",
        "lat": -37.65199001644807,
        "lon": -71.3807918573458,
        "alt_km": 410.69785117241736,
        "timestamp": "2025-12-24T09:46:29.713175+00:00",
        "meta_object_name": "STARLINK-35437",
        "meta_object_id": "2025-268G",
        "meta_epoch": "2025-12-24T04:00:01.998720",
        "meta_mean_motion": 15.53920741,
        "meta_eccentricity": 0.0001472,
        "meta_inclination": 43.0004,
        "meta_ra_of_asc_node": 54.1422,
        "meta_arg_of_pericenter": 265.1278,
        "meta_mean_anomaly": 71.4011,
        "meta_ephemeris_type": 0,
        "meta_classification_type": "U",
        "meta_norad_cat_id": 66563,
        "meta_element_set_no": 999,
        "meta_rev_at_epoch": 612,
        "meta_bstar": -0.034939,
        "meta_mean_motion_dot": -0.02060536,
        "meta_mean_motion_ddot": 0,
        "tle_line1": "1 66563U 25268G   25358.16668980 -.02060536  00000+0 -34939-1 0  9998",
        "tle_line2": "2 66563  43.0004  54.1422 0001472 265.1278  71.4011 15.53920741  6122"
      },
      "geometry": {
        "type": "Point",
        "coordinates": [
          -71.3807918573458,
          -37.65199001644807
        ]
      }
    },
    {
      "type": "Feature",
      "properties": {
        "norad_id": 66564,
        "name": "STARLINK-35358",
        "group": "last-30-days",
        "lat": -39.09663359624075,
        "lon": -66.5899495481399,
        "alt_km": 408.1680500224347,
        "timestamp": "2025-12-24T09:46:29.713190+00:00",
        "meta_object_name": "STARLINK-35358",
        "meta_object_id": "2025-268H",
        "meta_epoch": "2025-12-24T00:00:00.998784",
        "meta_mean_motion": 15.55536736,
        "meta_eccentricity": 0.0001283,
        "meta_inclination": 43.0003,
        "meta_ra_of_asc_node": 55.1151,
        "meta_arg_of_pericenter": 276.52,
        "meta_mean_anomaly": 209.0424,
        "meta_ephemeris_type": 0,
        "meta_classification_type": "U",
        "meta_norad_cat_id": 66564,
        "meta_element_set_no": 999,
        "meta_rev_at_epoch": 610,
        "meta_bstar": -0.033744,
        "meta_mean_motion_dot": -0.02107039,
        "meta_mean_motion_ddot": 0,
        "tle_line1": "1 66564U 25268H   25358.00001156 -.02107039  00000+0 -33744-1 0  9991",
        "tle_line2": "2 66564  43.0003  55.1151 0001283 276.5200 209.0424 15.55536736  6107"
      },
      "geometry": {
        "type": "Point",
        "coordinates": [
          -66.5899495481399,
          -39.09663359624075
        ]
      }
    },
    {
      "type": "Feature",
      "properties": {
        "norad_id": 66565,
        "name": "STARLINK-35893",
        "group": "last-30-days",
        "lat": -40.17832412138694,
        "lon": -62.31148564649248,
        "alt_km": 405.71744602433773,
        "timestamp": "2025-12-24T09:46:29.713201+00:00",
        "meta_object_name": "STARLINK-35893",
        "meta_object_id": "2025-268J",
        "meta_epoch": "2025-12-24T00:00:00.998784",
        "meta_mean_motion": 15.56366693,
        "meta_eccentricity": 0.000118,
        "meta_inclination": 43.0006,
        "meta_ra_of_asc_node": 55.109,
        "meta_arg_of_pericenter": 265.6681,
        "meta_mean_anomaly": 222.1386,
        "meta_ephemeris_type": 0,
        "meta_classification_type": "U",
        "meta_norad_cat_id": 66565,
        "meta_element_set_no": 999,
        "meta_rev_at_epoch": 610,
        "meta_bstar": -0.032507,
        "meta_mean_motion_dot": -0.02095315,
        "meta_mean_motion_ddot": 0,
        "tle_line1": "1 66565U 25268J   25358.00001156 -.02095315  00000+0 -32507-1 0  9991",
        "tle_line2": "2 66565  43.0006  55.1090 0001180 265.6681 222.1386 15.56366693  6108"
      },
      "geometry": {
        "type": "Point",
        "coordinates": [
          -62.31148564649248,
          -40.17832412138694
        ]
      }
    },
    {
      "type": "Feature",
      "properties": {
        "norad_id": 66566,
        "name": "STARLINK-35871",
        "group": "last-30-days",
        "lat": -40.88335440507612,
        "lon": -59.01593130230982,
        "alt_km": 404.0085917857441,
        "timestamp": "2025-12-24T09:46:29.713212+00:00",
        "meta_object_name": "STARLINK-35871",
        "meta_object_id": "2025-268K",
        "meta_epoch": "2025-12-24T00:00:00.998784",
        "meta_mean_motion": 15.56787862,
        "meta_eccentricity": 0.0001369,
        "meta_inclination": 43.0007,
        "meta_ra_of_asc_node": 55.1044,
        "meta_arg_of_pericenter": 268.4288,
        "meta_mean_anomaly": 221.2622,
        "meta_ephemeris_type": 0,
        "meta_classification_type": "U",
        "meta_norad_cat_id": 66566,
        "meta_element_set_no": 999,
        "meta_rev_at_epoch": 610,
        "meta_bstar": -0.029428,
        "meta_mean_motion_dot": -0.01909981,
        "meta_mean_motion_ddot": 0,
        "tle_line1": "1 66566U 25268K   25358.00001156 -.01909981  00000+0 -29428-1 0  9992",
        "tle_line2": "2 66566  43.0007  55.1044 0001369 268.4288 221.2622 15.56787862  6100"
      },
      "geometry": {
        "type": "Point",
        "coordinates": [
          -59.01593130230982,
          -40.88335440507612
        ]
      }
    },
    {
      "type": "Feature",
      "properties": {
        "norad_id": 66567,
        "name": "STARLINK-35825",
        "group": "last-30-days",
        "lat": -41.45037136165541,
        "lon": -55.90410568425798,
        "alt_km": 402.51681716815074,
        "timestamp": "2025-12-24T09:46:29.713222+00:00",
        "meta_object_name": "STARLINK-35825",
        "meta_object_id": "2025-268L",
        "meta_epoch": "2025-12-24T00:00:00.998784",
        "meta_mean_motion": 15.5679621,
        "meta_eccentricity": 8.53e-05,
        "meta_inclination": 43.0004,
        "meta_ra_of_asc_node": 55.0999,
        "meta_arg_of_pericenter": 273.9573,
        "meta_mean_anomaly": 217.6216,
        "meta_ephemeris_type": 0,
        "meta_classification_type": "U",
        "meta_norad_cat_id": 66567,
        "meta_element_set_no": 999,
        "meta_rev_at_epoch": 610,
        "meta_bstar": -0.017201,
        "meta_mean_motion_dot": -0.01142155,
        "meta_mean_motion_ddot": 0,
        "tle_line1": "1 66567U 25268L   25358.00001156 -.01142155  00000+0 -17201-1 0  9991",
        "tle_line2": "2 66567  43.0004  55.0999 0000853 273.9573 217.6216 15.56796210  6106"
      },
      "geometry": {
        "type": "Point",
        "coordinates": [
          -55.90410568425798,
          -41.45037136165541
        ]
      }
    }
  ]
}